OBJECT_NAME,OBJECT_ID,EPOCH,MEAN_MOTION,ECCENTRICITY,INCLINATION,RA_OF_ASC_NODE,ARG_OF_PERICENTER,MEAN_ANOMALY,EPHEMERIS_TYPE,CLASSIFICATION_TYPE,NORAD_CAT_ID,ELEMENT_SET_NO,REV_AT_EPOCH,BSTAR,MEAN_MOTION_DOT,MEAN_MOTION_DDOT
JILIN-1 03,2017-002B,2026-07-12T06:30:44.645184,15.42181713,.00079548,97.1947,200.0119,87.3197,272.8962,0,U,41914,999,52572,.19507982E-3,.829E-4,0
CARTOSAT-2D,2017-008A,2026-07-12T07:38:32.765856,15.19270109,.00057262,97.4098,252.1531,146.7730,213.3866,0,U,41948,999,52139,.11641306E-3,.2388E-4,0
CARTOSAT-2E,2017-036C,2026-07-12T08:04:03.009216,15.19241802,.00029357,97.4269,252.7223,197.4664,162.6470,0,U,42767,999,50196,.11815465E-3,.2422E-4,0
IRIDIUM 113,2017-039A,2026-07-12T06:53:39.078240,14.34217005,.00020446,86.3989,311.6877,90.8705,269.2726,0,U,42803,999,47478,-.16341893E-4,-.26E-6,0
NORSAT 2,2017-042D,2026-07-11T06:50:36.143520,15.22382300,.00085197,97.4047,5.3526,333.5830,26.4971,0,U,42828,999,49140,.27070458E-3,.6187E-4,0
TECHNOSAT,2017-042E,2026-07-12T07:32:38.411808,15.05099876,.00176948,97.4310,350.0210,12.7462,347.4209,0,U,42829,999,49048,.15666364E-3,.2176E-4,0
FLYING LAPTOP,2017-042G,2026-07-12T07:32:18.731616,15.01300469,.00198201,97.4789,347.8994,41.6471,318.6259,0,U,42831,999,49022,.15611813E-3,.1958E-4,0
WNISAT 1R,2017-042L,2026-07-11T21:03:41.736096,15.01854496,.0011261,97.4825,348.1181,74.9901,285.2570,0,U,42835,999,49021,.58908E-4,.712E-5,0
LEMUR-2-GREENBERG,2017-042N,2026-07-09T11:53:19.376160,15.32031511,.00071356,97.3831,11.0293,283.6729,76.3718,0,U,42837,999,49180,.3749711E-3,.11532E-3,0
LEMUR-2-FURIAUS,2017-042R,2026-07-10T17:54:39.577824,15.31036825,.00063598,97.3778,10.1778,347.2297,12.8782,0,U,42840,999,49181,.40490136E-3,.12077E-3,0
CORVUS BC2,2017-042X,2026-07-10T07:28:21.992160,15.06442373,.00138712,97.4090,351.7667,39.1681,321.0548,0,U,42846,999,49054,.14632989E-3,.2103E-4,0
CORVUS BC1,2017-042Y,2026-07-11T21:32:15.786816,15.06611168,.0011945,97.4117,354.1218,12.2872,347.8644,0,U,42847,999,49081,.94397E-4,.1341E-4,0
VRSS-2,2017-060A,2026-07-12T07:36:30.081312,14.81234014,.00177021,97.6508,229.9108,22.7492,337.4502,0,U,42954,999,47217,.50365378E-4,.343E-5,0
MOHAMMED VI-A,2017-070A,2026-07-12T08:14:11.337792,14.77099031,.0001188,97.9554,265.3269,93.8663,266.2683,0,U,43005,999,46769,-.447776E-6,-.54E-6,0
FENGYUN 3D,2017-072A,2026-07-12T05:40:19.724160,14.19744762,.00017261,99.0136,168.1128,21.1648,338.9598,0,U,43010,999,44854,.81879305E-4,.127E-5,0
NOAA 20 (JPSS-1),2017-073A,2026-07-12T07:20:30.233472,14.19516117,.00012778,98.7774,132.5459,126.9784,233.1510,0,U,43013,999,44803,.26548312E-4,.12E-6,0
MAKERSAT 0,2017-073D,2026-07-12T02:56:40.332192,15.32930037,.01052889,97.4594,75.8460,183.1958,176.8625,0,U,43016,999,47028,.3144352E-3,.11859E-3,0
RADFXSAT (FOX-1B),2017-073E,2026-07-12T01:50:41.589600,15.13035809,.01480861,97.4678,59.7847,242.3404,116.2732,0,U,43017,999,46915,.15679928E-3,.355E-4,0
JILIN-1 04,2017-074A,2026-07-12T06:03:15.207840,15.43079179,.00052602,97.4872,303.5458,108.1643,252.0177,0,U,43022,999,47813,.19140946E-3,.8371E-4,0
JILIN-1 05,2017-074B,2026-07-12T07:10:59.462976,15.34255455,.00063222,97.4879,299.8009,132.6426,227.5351,0,U,43023,999,47785,.13866108E-3,.4518E-4,0
JILIN-1 06,2017-074C,2026-07-12T06:35:30.901344,15.33974803,.00079085,97.4804,296.7520,142.9538,217.2252,0,U,43024,999,47768,.10819277E-3,.3477E-4,0
IRIDIUM 116,2017-083C,2026-07-12T07:57:35.036928,14.34217071,.00023912,86.3987,311.4902,99.4154,260.7312,0,U,43072,999,44777,.33074261E-4,.112E-5,0
IRIDIUM 130,2017-083D,2026-07-11T19:28:39.375840,14.34217059,.00021811,86.3992,311.9851,100.5131,259.6311,0,U,43073,999,44764,.37407562E-4,.125E-5,0
LKW-2,2017-084A,2026-07-12T06:22:51.363264,15.26661951,.0003468,97.1185,231.8924,124.4985,235.6582,0,U,43080,999,47551,.68695026E-4,.1734E-4,0
SUPERVIEW-1 03,2018-002A,2026-07-12T07:36:22.536864,15.40145202,.00471182,97.3136,278.1290,91.1900,269.4745,0,U,43099,999,47223,.30502882E-3,.12635E-3,0
CARTOSAT-2F,2018-004A,2026-07-12T07:16:07.491072,15.19258704,.00024543,97.4782,252.6904,142.5355,217.6051,0,U,43111,999,47114,.16454094E-3,.34E-4,0
LKW-3,2018-006A,2026-07-12T06:34:23.564640,15.35708604,.00027192,97.6626,354.8392,189.5280,170.5912,0,U,43146,999,47256,.16517232E-3,.5649E-4,0
ASNARO-2,2018-007A,2026-07-12T07:03:19.135008,15.22422821,.00019801,97.3970,199.8286,94.6563,265.4900,0,U,43152,999,47123,.23462327E-3,.5355E-4,0
